0 IRIDIUM 33 DEB
1 35808U 97051SS  13281.87768582  .00013423  00000-0  35972-2 0  3559
2 35808 086.3926 128.3933 0018577 256.2817 161.3422 14.48020158224288
0 IRIDIUM 33 DEB
1 35808U 97051SS  13283.88179520  .00011098  00000-0  29719-2 0  3569
2 35808 086.3929 127.5362 0018461 248.8545 169.4335 14.48062097224577
0 IRIDIUM 33 DEB
1 35808U 97051SS  13286.04251816  .00009925  00000-0  26554-2 0  3570
2 35808 086.3925 126.6115 0018386 240.8371 274.3007 14.48101594224897
0 IRIDIUM 33 DEB
1 35808U 97051SS  13289.28427203  .00014478  00000-0  38676-2 0  3582
2 35808 086.3913 125.2245 0018307 229.0490 255.4825 14.48173391225362
0 IRIDIUM 33 DEB
1 35808U 97051SS  13290.32113575  .00015501  00000-0  41388-2 0  3596
2 35808 086.3909 124.7804 0018349 225.2908 261.4472 14.48194999225519
0 IRIDIUM 33 DEB
1 35808U 97051SS  13292.25453795  .00012428  00000-0  33154-2 0  3600
2 35808 086.3908 123.9527 0018409 218.3678 261.9054 14.48242569225793
0 IRIDIUM 33 DEB
1 35808U 97051SS  13295.29551075  .00016981  00000-0  45222-2 0  3615
2 35808 086.3908 122.6514 0018579 207.8067 277.3585 14.48309120226235
